OBJECT_NAME,OBJECT_ID,EPOCH,MEAN_MOTION,ECCENTRICITY,INCLINATION,RA_OF_ASC_NODE,ARG_OF_PERICENTER,MEAN_ANOMALY,EPHEMERIS_TYPE,CLASSIFICATION_TYPE,NORAD_CAT_ID,ELEMENT_SET_NO,REV_AT_EPOCH,BSTAR,MEAN_MOTION_DOT,MEAN_MOTION_DDOT
KAZEOSAT 1,2014-024A,2024-01-20T19:03:54.836352,14.42021361,.0000936,98.4102,99.5889,97.4336,262.6960,0,U,39731,999,51201,.1546E-3,.464E-5,0
ALOS-2,2014-029A,2024-01-20T18:59:33.718272,14.79480982,.0001436,97.9204,119.5710,100.5399,259.5975,0,U,39766,999,52173,.45593E-3,.3356E-4,0
KAZEOSAT 2,2014-033A,2024-01-20T19:37:14.284416,14.82215693,.0011717,97.6422,252.7193,341.7774,18.3018,0,U,40010,999,51869,.16082E-3,.1234E-4,0
HODOYOSHI-4,2014-033B,2024-01-20T17:59:26.968416,14.83533313,.0025003,97.5981,237.6862,331.4873,28.4973,0,U,40011,999,51835,.33727E-3,.274E-4,0
DEIMOS-2,2014-033D,2024-01-20T19:24:21.703392,14.87855547,.0001982,97.7008,271.8771,54.6098,305.5303,0,U,40013,999,51969,.34896E-3,.3139E-4,0
HODOYOSHI-3,2014-033F,2024-01-20T12:03:07.847424,14.80408819,.0035953,97.5953,214.1109,4.2486,355.9025,0,U,40015,999,51737,.31517E-3,.2384E-4,0
SPOT 7,2014-034A,2024-01-20T17:46:20.944416,14.59058672,.0001574,98.1788,89.9412,90.3617,269.7763,0,U,40053,999,50896,.22689E-3,.1021E-4,0
SKYSAT-B,2014-037D,2024-01-20T14:38:40.159392,14.83382783,.0004933,98.3422,285.8622,237.2666,122.8071,0,U,40072,999,51549,.29967E-3,.24E-4,0
WORLDVIEW-3 (WV-3),2014-048A,2024-01-20T18:40:45.812928,14.84962080,.0001779,97.8443,96.2445,223.4571,136.6503,0,U,40115,999,51157,.22487E-3,.1863E-4,0
GAOFEN-2,2014-049A,2024-01-20T19:32:15.927072,14.80782841,.0004788,97.6857,77.8365,198.1263,161.9780,0,U,40118,999,50927,.27737E-3,.2088E-4,0
YAOGAN 21,2014-053A,2024-01-20T19:29:30.930720,15.23703630,.0012973,97.2768,83.5816,348.4716,11.6223,0,U,40143,999,52122,.49945E-3,.11958E-3,0
YAOGAN 22,2014-063A,2024-01-20T18:39:52.759008,13.15472526,.0006315,100.6383,151.8656,14.5043,345.6249,0,U,40275,999,44431,.14006E-3,.7E-7,0
ASNARO,2014-070A,2024-01-20T22:06:00.277056,15.19295652,.0003434,97.4244,105.0842,39.1917,320.9566,0,U,40298,999,51065,.81205E-3,.17099E-3,0
HODOYOSHI-1,2014-070B,2024-01-20T18:41:39.919200,15.40607492,.0008061,97.1652,83.3636,206.4018,153.6819,0,U,40299,999,51222,.51298E-3,.2085E-3,0
YAOGAN 23,2014-071A,2024-01-20T19:14:03.113952,15.39206600,.00023,97.6783,357.3380,99.1942,260.9563,0,U,40305,999,50949,.79675E-3,.30976E-3,0
YAOGAN 24,2014-072A,2024-01-20T19:39:42.475104,14.76166220,.0013299,98.0360,146.0080,195.6794,164.4005,0,U,40310,999,49415,.2838E-3,.1912E-4,0
CBERS 4,2014-079A,2024-01-20T18:59:14.451936,14.35477286,.0001794,98.4199,92.8722,78.7296,281.4092,0,U,40336,999,47795,.11311E-3,.282E-5,0
RESURS P2,2014-087A,2024-01-20T18:56:44.786400,15.51089453,.0008141,97.1645,107.3280,122.2247,237.9796,0,U,40360,999,50800,.37427E-3,.21761E-3,0
YAOGAN-26,2014-088A,2024-01-20T19:20:12.287328,15.23747663,.00056,97.0701,50.0931,166.4289,193.7101,0,U,40362,999,50470,.62013E-3,.14864E-3,0
SMAP,2015-003A,2024-01-20T13:59:59.417376,14.63351612,.0001404,98.1291,29.0687,97.2956,262.8406,0,U,40376,999,47912,.23539E-3,.1169E-4,0
KOMPSAT-3A,2015-014A,2024-01-20T19:33:47.551680,15.18687093,.0005372,97.5968,329.7355,88.5841,271.6009,0,U,40536,999,48716,.51401E-3,.106E-3,0
SENTINEL-2A,2015-028A,2024-01-20T18:44:25.027008,14.30808874,.000093,98.5744,97.1527,94.3240,265.8049,0,U,40697,999,44812,.1356E-3,.312E-5,0
GAOFEN-8,2015-030A,2024-01-20T18:22:33.026592,15.24002302,.0003745,97.6330,172.6342,125.8910,234.2675,0,U,40701,999,47704,.76527E-3,.18496E-3,0
CARBONITE 1 (CBNT-1),2015-032D,2024-01-20T17:46:24.819456,14.77616852,.0014616,97.6686,228.0594,289.6043,70.3590,0,U,40718,999,45933,.46357E-3,.3272E-4,0
YAOGAN-27,2015-040A,2024-01-20T19:36:58.516416,13.16007465,.0008993,100.0854,36.5615,82.3302,277.8833,0,U,40878,999,40363,.14482E-3,.13E-6,0
GAOFEN-9 01,2015-047A,2024-01-20T18:35:26.042208,14.79133258,.0031246,97.7539,80.9107,129.3319,231.0669,0,U,40894,999,45015,.50313E-3,.3709E-4,0
LAPAN-A2,2015-052B,2024-01-06T06:55:32.433312,14.77555377,.0013541,6.0004,76.3799,291.8204,68.0484,0,U,40931,999,44732,.84248E-4,.1263E-4,0
YAOGAN-28,2015-064A,2024-01-20T18:25:32.958912,15.23892400,.0006171,97.1872,177.0487,358.7130,1.4091,0,U,41026,999,45688,.52815E-3,.127E-3,0
YAOGAN-29,2015-069A,2024-01-20T19:15:23.279328,14.81458486,.0002451,98.0610,34.3218,36.5291,323.6088,0,U,41038,999,44049,.13547E-3,.1007E-4,0
KENT RIDGE 1,2015-077B,2024-01-20T19:43:33.929472,15.13666119,.0010194,14.9806,274.5030,167.5909,192.4663,0,U,41167,999,44749,.25711E-3,.546E-4,0
TELEOS-1,2015-077D,2024-01-20T14:07:07.166496,15.24755458,.0007478,14.9794,205.8212,295.8023,64.1528,0,U,41169,999,44809,.63631E-3,.17101E-3,0
GAOFEN-4,2015-083A,2024-01-20T12:19:42.720960,1.00267591,.0002153,0.1453,86.5495,148.7635,174.6410,0,U,41194,999,2971,0,-.33E-5,0
JASON-3,2016-002A,2024-01-20T18:23:48.343200,12.80928845,.0007564,66.0407,159.6070,272.4488,87.5661,0,U,41240,999,37463,.12141E-3,-.33E-6,0
SENTINEL-3A,2016-011A,2024-01-20T18:28:15.429792,14.26740194,.0001104,98.6274,89.6941,111.2443,248.8856,0,U,41335,999,41280,.12566E-3,.26E-5,0
ZIYUAN 3-2 (ZY 3-2),2016-033A,2024-01-20T18:24:13.699008,15.21333333,.0004135,97.4728,97.4636,344.2594,15.8513,0,U,41556,999,42443,.51467E-3,.11465E-3,0
CARTOSAT-2C,2016-040A,2024-01-20T18:20:45.543264,15.19220269,.0012744,97.4091,82.2983,317.3073,42.7171,0,U,41599,999,42034,.37661E-3,.7882E-4,0
SKYSAT-C1,2016-040C,2024-01-20T04:24:20.286432,15.30638614,.0006342,97.0862,87.7201,88.5663,271.6305,0,U,41601,999,42336,.47854E-3,.1412E-3,0
LAPAN-A3,2016-040E,2024-01-20T18:37:01.071840,15.23923305,.0010433,97.1522,41.2826,267.3812,92.6231,0,U,41603,999,42061,.17336E-3,.4127E-4,0
BIROS,2016-040F,2024-01-20T14:50:27.117024,15.34014797,.0008383,97.1417,53.6605,211.9189,148.1547,0,U,41604,999,42137,.43425E-3,.14241E-3,0
GAOFEN-3,2016-049A,2024-01-20T19:51:50.924736,14.42249306,.0001214,98.4069,30.6674,65.4192,294.7124,0,U,41727,999,39203,.74585E-4,.202E-5,0
SKYSAT-C4,2016-058B,2024-01-20T14:18:44.410176,15.33689889,.0002969,97.0361,75.3404,121.6872,238.4662,0,U,41771,999,41043,.41355E-3,.13408E-3,0
SKYSAT-C5,2016-058C,2024-01-20T03:19:22.584576,15.37730744,.0003401,97.1843,78.8276,49.6252,310.5290,0,U,41772,999,40878,.49336E-3,.18227E-3,0
SKYSAT-C2,2016-058D,2024-01-20T14:29:57.260544,15.30323145,.0003963,97.0381,74.9198,135.7534,224.4025,0,U,41773,999,41039,.44132E-3,.12884E-3,0
SKYSAT-C3,2016-058E,2024-01-20T11:05:18.148704,15.40462699,.000395,97.0375,80.1155,239.1896,120.8963,0,U,41774,999,41073,.50209E-3,.20292E-3,0
ALSAT 1B,2016-059C,2024-01-20T18:07:07.845024,14.70724887,.0010035,97.8368,54.9645,158.2562,201.9073,0,U,41785,999,39138,.13711E-3,.789E-5,0
PATHFINDER 1,2016-059E,2024-01-20T14:52:52.154112,14.65072567,.0030945,97.8459,49.6186,121.2372,239.1870,0,U,41787,999,39094,.24708E-3,.1289E-4,0
SCATSAT 1,2016-059H,2024-01-20T13:46:32.904480,14.51425397,.0004309,98.2433,65.6640,192.0064,168.1029,0,U,41790,999,38749,.14859E-3,.549E-5,0
GOKTURK 1A,2016-073A,2024-01-20T19:14:37.257504,14.62831500,.0001327,98.1170,276.9289,85.5565,274.5788,0,U,41875,999,38041,.21253E-3,.1039E-4,0
RESOURCESAT-2A,2016-074A,2024-01-20T18:53:10.020192,14.21661116,.0001981,98.6622,97.1579,93.9743,266.1660,0,U,41877,999,36950,.16311E-3,.315E-5,0
CARTOSAT-2D,2017-008A,2024-01-20T19:08:48.757056,15.19246621,.000641,97.4495,82.3695,82.2880,277.9082,0,U,41948,999,38421,.37283E-3,.7795E-4,0
SENTINEL-2B,2017-013A,2024-01-20T19:34:53.245920,14.30817775,.00011,98.5718,97.1998,100.2659,259.8648,0,U,42063,999,35904,.12281E-3,.278E-5,0
ZHUHAI-1 02 (CAS-4B),2017-034B,2024-01-20T19:00:52.844256,15.22731572,.0009713,43.0147,341.5636,82.3460,277.8493,0,U,42759,999,36474,.69823E-3,.16413E-3,0
NUSAT-3 (MILANESAT),2017-034C,2024-01-20T19:20:43.990080,15.24812878,.001232,43.0132,330.2115,103.1133,257.1094,0,U,42760,999,36489,.79717E-3,.20013E-3,0
ZHUHAI-1 01 (CAS-4A),2017-034D,2024-01-20T19:18:19.658880,15.22796157,.0010612,43.0133,339.9569,84.2811,275.9249,0,U,42761,999,36475,.70568E-3,.16627E-3,0
CARTOSAT-2E,2017-036C,2024-01-20T17:56:55.851360,15.19203457,.0006346,97.4619,82.1829,136.6249,223.5485,0,U,42767,999,36477,.34551E-3,.7209E-4,0
FORMOSAT-5,2017-049A,2024-01-20T13:50:38.521536,14.50810306,.0009516,98.3049,100.3805,264.8773,95.1335,0,U,42920,999,33927,.14789E-3,.538E-5,0
SENTINEL-5P,2017-064A,2024-01-20T11:07:43.474368,14.19552737,.0001543,98.7273,321.9205,94.1135,266.0218,0,U,42969,999,32489,.11067E-3,.19E-5,0
SKYSAT-C11,2017-068A,2024-01-20T07:05:19.262112,15.33767632,.0005215,97.3402,146.7967,105.2234,254.9585,0,U,42987,999,34778,.54892E-3,.17875E-3,0
SKYSAT-C10,2017-068B,2024-01-20T07:18:23.651424,15.31159625,.0004636,97.3471,147.5532,220.3095,139.7803,0,U,42988,999,34781,.55135E-3,.16541E-3,0
SKYSAT-C9,2017-068C,2024-01-20T07:39:42.837120,15.32171623,.0022703,97.3407,145.8324,125.5996,234.7365,0,U,42989,999,34798,.54717E-3,.17073E-3,0
SKYSAT-C8,2017-068D,2024-01-20T08:34:20.669952,15.30454761,.0004267,97.3498,147.3876,68.8647,291.3050,0,U,42990,999,34779,.54358E-3,.15953E-3,0
SKYSAT-C7,2017-068E,2024-01-20T07:09:14.721984,15.30801335,.0003709,97.3498,147.6433,135.7119,224.4419,0,U,42991,999,34780,.55655E-3,.16512E-3,0
SKYSAT-C6,2017-068F,2024-01-20T07:49:00.384960,15.30700720,.0006706,97.3525,148.6150,74.1406,286.0574,0,U,42992,999,34784,.52892E-3,.15645E-3,0
CARTOSAT-2F,2018-004A,2024-01-20T18:44:37.116960,15.19218982,.0002309,97.4551,82.4637,129.5185,230.6254,0,U,43111,999,33396,.38847E-3,.8116E-4,0
GAOFEN-1 02,2018-031A,2024-01-20T18:26:17.446272,14.76547320,.0002809,97.8403,92.7524,304.5407,55.5538,0,U,43259,999,31307,.26484E-3,.1797E-4,0
GAOFEN-1 03,2018-031B,2024-01-20T19:32:36.758112,14.76556591,.0005244,97.8398,92.7281,19.7548,340.3864,0,U,43260,999,31307,.26605E-3,.1807E-4,0
GAOFEN-1 04,2018-031D,2024-01-20T10:49:24.082752,14.76543858,.0003629,97.8407,92.4661,347.2931,12.8187,0,U,43262,999,31301,.12498E-3,.822E-5,0
